AMAZONAS 3              
1 39078U 13006A   18312.03829773 -.00000291  00000-0  00000-0 0  9994
2 39078   0.0256 212.7246 0004937  12.8532 134.4077  1.00270814 17030
AZERSPACE 1             
1 39079U 13006B   18312.73920024  .00000126  00000-0  00000+0 0  9998
2 39079   0.0062 268.6966 0001384 343.3912 107.8971  1.00271908 21084
EUTELSAT 117 WEST A     
1 39122U 13012A   18312.19288422 -.00000021  00000-0  00000+0 0  9998
2 39122   0.0175  68.0964 0002895 171.3063 120.5687  1.00271364 20612
ANIK G1                 
1 39127U 13014A   18312.16661826 -.00000082  00000-0  00000-0 0  9993
2 39127   0.0126 280.3234 0002464 330.3827 109.2935  1.00272078 20409
CHINASAT 11 (ZX 11)     
1 39157U 13020A   18313.08009461 -.00000298  00000-0  00000+0 0  9994
2 39157   0.0073 212.1586 0003742  70.4324 252.4764  1.00270943 20309
EUTELSAT 7B             
1 39163U 13022A   18312.84727528  .00000041  00000-0  00000+0 0  9992
2 39163   0.0537  44.3861 0002491 281.1469  34.4774  1.00270711 20147
SES-6                   
1 39172U 13026A   18312.97881381 -.00000268  00000-0  00000+0 0  9990
2 39172   0.0336  32.4946 0001679 196.0870 131.4303  1.00272443 19882
IRNSS-1A                
1 39199U 13034A   18312.01122307  .00000112  00000-0  00000+0 0  9996
2 39199  29.7068 106.3784 0021374 175.6407 184.3513  1.00267114 19794
ALPHASAT                
1 39215U 13038A   18312.86502451  .00000129  00000-0  00000+0 0  9992
2 39215   2.0646  24.8272 0001779 192.9488 166.4723  1.00270800 19423
INSAT-3D                
1 39216U 13038B   18311.64196652 -.00000167  00000-0  00000-0 0  9994
2 39216   0.0161 305.8531 0000956 257.1867 156.9819  1.00274236 19264
EUTELSAT 25B            
1 39233U 13044A   18311.79882850  .00000134  00000-0  00000-0 0  9991
2 39233   0.0561  31.9767 0001793 182.3934 145.6442  1.00272243 18788
GSAT-7                  
1 39234U 13044B   18309.66963230 -.00000091  00000-0  00000-0 0  9990
2 39234   0.0979 101.3344 0009384 158.8991  99.6855  1.00271723 17462
AMOS-4                  
1 39237U 13045A   18312.68668153 -.00000000  00000-0  00000+0 0  9995
2 39237   0.0571 107.0594 0000166 323.7571 289.2117  1.00273522 19042
ASTRA 2E                
1 39285U 13056A   18312.78775713  .00000143  00000-0  00000+0 0  9999
2 39285   0.0616 341.4360 0002383 233.5251 145.0495  1.00271343 18749
SIRIUS FM-6             
1 39360U 13058A   18312.19116562 -.00000025  00000-0  00000-0 0  9992
2 39360   0.0238 282.7626 0000340 232.6390 204.6263  1.00271319 18311
RADUGA-1M 3             
1 39375U 13062A   18312.78729237 -.00000046  00000-0  00000+0 0  9999
2 39375   0.0106 221.8380 0002409  24.0758 155.4525  1.00272278 18286
SES-8                   
1 39460U 13071A   18312.60352505 -.00000277  00000-0  00000+0 0  9991
2 39460   0.0150 266.0035 0001285 255.2680 198.7596  1.00271517 18026
INMARSAT 5-F1           
1 39476U 13073A   18311.69596972  .00000019  00000-0  00000-0 0  9990
2 39476   0.0213 272.3311 0000214  94.2789 353.3903  1.00270297 17745
TKSAT-1 (TUPAC KATARI)  
1 39481U 13075A   18312.82768264 -.00000202  00000-0  00000+0 0  9993
2 39481   0.0079  70.2018 0001333 158.4175  30.1595  1.00272095 17997
EXPRESS-AM5             
1 39487U 13077A   18311.43731584 -.00000289  00000-0  00000+0 0  9997
2 39487   0.0035 318.9889 0000819  24.1710   0.9301  1.00272971 18506
GSAT-14                 
1 39498U 14001A   18312.66178249 -.00000084  00000-0  00000+0 0  9999
2 39498   0.0230 269.0211 0001879 258.8829 192.1269  1.00271583 17733
THAICOM 6               
1 39500U 14002A   18312.78903709 -.00000128  00000-0  00000+0 0  9993
2 39500   0.0834 111.2610 0003039  80.2220 218.9881  1.00270672 17678
TDRS 12                 
1 39504U 14004A   18312.91368546 -.00000284  00000-0  00000+0 0  9991
2 39504   5.3917 336.1196 0003177 275.1318  84.6508  1.00265601 17608
ABS-2                   
1 39508U 14006A   18312.65902308 -.00000094  00000-0  00000+0 0  9997
2 39508   0.0664  90.8244 0002325 141.3510 127.8298  1.00272253 17475
ATHENA-FIDUS            
1 39509U 14006B   18312.76194646  .00000147  00000-0  00000+0 0  9996
2 39509   0.0153 291.0462 0001077 312.4897 116.4795  1.00273624 17657
TURKSAT 4A              
1 39522U 14007A   18311.75298551  .00000137  00000-0  00000-0 0  9990
2 39522   0.0256 269.2133 0004016 323.0942 127.6820  1.00270632 17135
EXPRESS-AT1             
1 39612U 14010A   18311.66147696  .00000069  00000-0  00000-0 0  9991
2 39612   0.0119 338.7214 0000482 343.9041  18.3354  1.00273192 17186
EXPRESS-AT2             
1 39613U 14010B   18311.43722861 -.00000291  00000-0  00000+0 0  9997
2 39613   0.0052 308.0091 0000346 294.5909 101.2625  1.00272082 17011
AMAZONAS 4A             
1 39616U 14011A   18313.07157470 -.00000260  00000-0  00000+0 0  9997
2 39616   0.0778  78.7384 0003317 152.6501 128.6081  1.00274023 17025
ASTRA 5B                
1 39617U 14011B   18313.13854271  .00000148  00000-0  00000+0 0  9992
2 39617   0.0456 305.1463 0003591 275.4481 269.0626  1.00272385 17023
IRNSS-1B                
1 39635U 14017A   18311.51394459  .00000055  00000-0  00000-0 0  9993
2 39635  28.9430 286.7888 0019709 188.5577 171.3388  1.00275218 16732
LUCH 5V                 
1 39727U 14023A   18312.57687922 -.00000277  00000-0  00000-0 0  9996
2 39727   1.6840 300.5061 0002498 323.0103  86.5821  1.00267854534677
KAZSAT-3                
1 39728U 14023B   18312.70456034  .00000051  00000-0  00000+0 0  9998
2 39728   0.0117 274.3294 0000468  37.2365  48.4567  1.00280819 16599
EUTELSAT 3B             
1 39773U 14030A   18312.81785469  .00000013  00000-0  00000+0 0  9993
2 39773   0.0726 333.6644 0005445 233.2931 138.5427  1.00270761 16366
ASIASAT 8               
1 40107U 14046A   18311.88017810 -.00000042  00000-0  00000-0 0  9991
2 40107   0.0574  92.1638 0001680 121.9464 145.9050  1.00272206 74309
ASIASAT 6               
1 40141U 14052A   18311.79219184 -.00000371  00000-0  00000-0 0  9999
2 40141   0.0112 147.9691 0000679 119.8162 184.2500  1.00269153 15309
OPTUS 10                
1 40146U 14054A   18312.43439221 -.00000155  00000-0  00000+0 0  9993
2 40146   0.0733 295.3138 0004046 278.3186 146.3681  1.00269260 15270
MEASAT-3B               
1 40147U 14054B   18312.61325661 -.00000248  00000-0  00000+0 0  9999
2 40147   0.0366  26.2541 0001278 234.0665  99.6913  1.00267764 15328
LUCH (OLYMP)            
1 40258U 14058A   18311.60452780  .00000062  00000-0  00000+0 0  9990
2 40258   0.0312  75.3340 0000346 163.7255  82.2832  1.00275367 15070
HIMAWARI-8              
1 40267U 14060A   18312.47713576 -.00000285  00000-0  00000-0 0  9991
2 40267   0.0054 288.0689 0000738 304.9339 126.9905  1.00266322 14908
IRNSS-1C                
1 40269U 14061A   18312.26282718 -.00000168  00000-0  00000-0 0  9990
2 40269   2.1809 224.5606 0021793  15.1954 345.3262  1.00272785 14838
INTELSAT 30 (IS-30)     
1 40271U 14062A   18312.53901882 -.00000158  00000-0  00000-0 0  9993
2 40271   0.0124 286.7403 0002005 172.4622  47.4446  1.00268619 14809
ARSAT 1                 
1 40272U 14062B   18312.32825675 -.00000267  00000-0  00000-0 0  9997
2 40272   0.0421 114.9319 0001233 115.6176 223.2998  1.00270934 14756
EXPRESS-AM6             
1 40277U 14064A   18311.11785652  .00000087  00000-0  00000-0 0  9999
2 40277   0.0002 284.2054 0001043  23.1721 194.3532  1.00273202 14800
GSAT-16                 
1 40332U 14078A   18312.71434713  .00000077  00000-0  00000+0 0  9990
2 40332   0.0283 274.2629 0004551 214.5715 231.2325  1.00274606 14413
DIRECTV 14              
1 40333U 14078B   18312.82524003 -.00000133  00000-0  00000+0 0  9999
2 40333   0.0134 281.3959 0000782 145.2204 179.2123  1.00271417 14390
YAMAL 401               
1 40345U 14082A   18311.78625979 -.00000238  00000-0  00000-0 0  9992
2 40345   0.0217 219.4770 0000481 159.3171  41.1655  1.00270537 14550
ASTRA 2G                
1 40364U 14089A   18312.78858239  .00000143  00000-0  00000+0 0  9991
2 40364   0.0645  74.4948 0001129 343.2429 302.2997  1.00272744 14172
FENGYUN 2G              
1 40367U 14090A   18312.57783882 -.00000309  00000-0  00000-0 0  9990
2 40367   0.7361 108.1847 0003342 249.2535 357.8462  1.00275156 14186
INMARSAT 5-F2           
1 40384U 15005A   18313.14352101 -.00000292  00000-0  00000+0 0  9996
2 40384   0.0218 275.6550 0000424  42.7725  86.4854  1.00269843 13832
ABS-3A                  
1 40424U 15010A   18311.87772544 -.00000035  00000-0  00000-0 0  9998
2 40424   0.0147 305.6815 0001949 180.0294 234.3332  1.00270843 13563
EUTELSAT 115 WEST B     
1 40425U 15010B   18312.18765936 -.00000034  00000-0  00000+0 0  9999
2 40425   0.0185 112.6862 0000341 119.5848 127.7521  1.00272941 13589
EXPRESS-AM7             
1 40505U 15012A   18312.49417954  .00000142  00000-0  00000-0 0  9998
2 40505   0.0049  22.9793 0002539 209.9100  32.6923  1.00275096 13505
IRNSS-1D                
1 40547U 15018A   18312.35434479 -.00000325  00000-0  00000+0 0  9999
2 40547  28.8716 286.8812 0019032 188.1707 171.7310  1.00268263 13390
THOR 7                  
1 40613U 15022A   18312.86847183 -.00000015  00000-0  00000+0 0  9990
2 40613   0.0433 101.8093 0002557 118.8363 139.3616  1.00271929 12976
TURKMENALEM52E/MONACOSAT
1 40617U 15023A   18312.72249854  .00000097  00000-0  00000+0 0  9990
2 40617   0.0129 313.8493 0002279 258.0011 148.1622  1.00268917 12999
DIRECTV 15              
1 40663U 15026A   18313.14611031 -.00000122  00000-0  00000+0 0  9991
2 40663   0.0078 271.0122 0000439 219.7047 229.2869  1.00271512 12692
SKY MEXICO-1            
1 40664U 15026B   18313.08494596 -.00000241  00000-0  00000+0 0  9992
2 40664   0.0134 276.5384 0001864 309.5573 133.8888  1.00270323 12691
METEOSAT-11 (MSG-4)     
1 40732U 15034A   18311.53435754 -.00000014  00000-0  00000-0 0  9995
2 40732   1.1161 238.2018 0000790  53.7714 306.7601  1.00268746 12184
